CSS (TIANHE)            
1 48274U 21035A   23348.08993737  .00023353  00000+0  24738-3 0  9994
2 48274  41.4708 140.1301 0007169 332.5500  27.4961 15.63540206149962
